{
  "type": "FeatureCollection",
  "features": [
    {
      "type": "Feature",
      "geometry": {
        "type": "LineString",
        "coordinates": [
          [
            32.8610186,
            39.9229878
          ],
          [
            32.8618539,
            39.9236421
          ],
          [
            32.8623762,
            39.9240454
          ],
          [
            32.8624839,
            39.9241222
          ],
          [
            32.862396,
            39.9242111
          ],
          [
            32.8622908,
            39.9241341
          ],
          [
            32.8609739,
            39.9230709
          ],
          [
            32.8601283,
            39.9224023
          ],
          [
            32.8593108,
            39.9217421
          ],
          [
            32.8585105,
            39.9214734
          ],
          [
            32.8567301,
            39.9211253
          ],
          [
            32.8541843,
            39.9208565
          ],
          [
            32.8539089,
            39.9208691
          ],
          [
            32.8539077,
            39.9207003
          ],
          [
            32.8541528,
            39.9156877
          ],
          [
            32.8542526,
            39.9140845
          ],
          [
            32.8533954,
            39.9136302
          ],
          [
            32.8523544,
            39.9138206
          ],
          [
            32.84617,
            39.914835
          ],
          [
            32.8452886,
            39.914987
          ],
          [
            32.8441733,
            39.9151483
          ],
          [
            32.8435024,
            39.9152769
          ],
          [
            32.835546,
            39.9162279
          ],
          [
            32.8343003,
            39.9162658
          ],
          [
            32.8323809,
            39.916201
          ],
          [
            32.8218266,
            39.914509
          ],
          [
            32.8217897,
            39.9145046
          ],
          [
            32.8212955,
            39.9143915
          ],
          [
            32.8178786,
            39.9135837
          ],
          [
            32.8130493,
            39.9124384
          ],
          [
            32.8121468,
            39.9122222
          ],
          [
            32.8068635,
            39.9110029
          ],
          [
            32.8000467,
            39.9095821
          ],
          [
            32.7892047,
            39.9088884
          ],
          [
            32.7865216,
            39.9087745
          ],
          [
            32.7856453,
            39.9087361
          ],
          [
            32.7841558,
            39.9086801
          ],
          [
            32.7818577,
            39.9086009
          ],
          [
            32.7810842,
            39.9085818
          ],
          [
            32.7804234,
            39.9085616
          ],
          [
            32.7787122,
            39.9084647
          ],
          [
            32.7774929,
            39.9085351
          ],
          [
            32.775396,
            39.9084334
          ],
          [
            32.7753576,
            39.9087005
          ]
        ]
      },
      "properties": {
        "type": "eco"
      }
    }
  ]
}