{
  "type": "FeatureCollection",
  "features": [
    {
      "type": "Feature",
      "geometry": {
        "type": "LineString",
        "coordinates": [
          [
            32.8117821,
            39.8609695
          ],
          [
            32.8128859,
            39.8612765
          ],
          [
            32.8141722,
            39.8607553
          ],
          [
            32.814305,
            39.8609365
          ],
          [
            32.8145594,
            39.8612897
          ],
          [
            32.8148699,
            39.8615941
          ],
          [
            32.815027,
            39.8618999
          ],
          [
            32.8153766,
            39.8624339
          ],
          [
            32.8157554,
            39.8631593
          ],
          [
            32.8165968,
            39.8629001
          ],
          [
            32.816825,
            39.8628429
          ],
          [
            32.8175917,
            39.8626065
          ],
          [
            32.8177996,
            39.8629071
          ],
          [
            32.81821,
            39.8633497
          ],
          [
            32.8183964,
            39.8633358
          ],
          [
            32.8204133,
            39.8632892
          ],
          [
            32.8207241,
            39.8636737
          ],
          [
            32.8222153,
            39.8640096
          ],
          [
            32.8230443,
            39.8642618
          ],
          [
            32.8241542,
            39.8645636
          ],
          [
            32.8246322,
            39.8641404
          ],
          [
            32.825931,
            39.863746
          ],
          [
            32.8263366,
            39.8639556
          ],
          [
            32.8271699,
            39.8643861
          ],
          [
            32.8274505,
            39.8639258
          ],
          [
            32.8291092,
            39.8654635
          ],
          [
            32.8292823,
            39.8650804
          ],
          [
            32.830326,
            39.8652753
          ],
          [
            32.8307398,
            39.8650945
          ],
          [
            32.831264,
            39.8654501
          ],
          [
            32.8319041,
            39.8654485
          ],
          [
            32.8332517,
            39.8664679
          ],
          [
            32.8330618,
            39.8656224
          ],
          [
            32.833693,
            39.8655309
          ]
        ]
      },
      "properties": {
        "type": "shortest"
      }
    }
  ]
}